NORAD_CAT_ID,OBJECT_NAME,OBJECT_TYPE,EPOCH,MEAN_MOTION,ECCENTRICITY,INCLINATION,RA_OF_ASC_NODE,ARG_OF_PERICENTER,MEAN_ANOMALY,BSTAR,MEAN_MOTION_DOT,MEAN_MOTION_DDOT,TLE_LINE0,TLE_LINE1,TLE_LINE2,SEMIMAJOR_AXIS,PERIOD,APOGEE,PERIGEE,DECAYED
55291.0,STARLINK-5327,PAYLOAD,2023-04-22 15:37:23,15.69941285,0.0003558,69.9972,167.1121,267.3952,92.6836,-9.3728e-06,-1.341e-05,0.0,0 STARLINK-5327,1 55291U 23010Y   23112.65096343 -.00001341  00000-0 -93728-5 0  9998,2 55291  69.9972 167.1121 0003558 267.3952  92.6836 15.69941285 15437,6737.202,91.723,361.464,356.67,0.0
55291.0,STARLINK-5327,PAYLOAD,2023-04-23 13:01:56,15.69925141,0.000333,69.9969,164.6044,287.3705,72.7126,5.2208e-06,4.15e-06,0.0,0 STARLINK-5327,1 55291U 23010Y   23113.54300957  .00000415  00000-0  52208-5 0  9993,2 55291  69.9969 164.6044 0003330 287.3705  72.7126 15.69925141 15574,6737.248,91.724,361.357,356.87,0.0
55291.0,STARLINK-5327,PAYLOAD,2023-04-23 16:05:26,15.69920716,0.0003533,69.9971,164.2459,278.5311,81.5485,2.9367e-06,1.4e-06,0.0,0 STARLINK-5327,1 55291U 23010Y   23113.67044430  .00000140  00000-0  29367-5 0  9993,2 55291  69.9971 164.2459 0003533 278.5311  81.5485 15.69920716 15594,6737.261,91.724,361.506,356.746,0.0
55291.0,STARLINK-5327,PAYLOAD,2023-04-24 13:29:56,15.69943335,0.0002946,69.997,161.7356,260.1128,99.9736,1.6327e-05,1.752e-05,0.0,0 STARLINK-5327,1 55291U 23010Y   23114.56245520  .00001752  00000-0  16327-4 0  9996,2 55291  69.9970 161.7356 0002946 260.1128  99.9736 15.69943335 15731,6737.196,91.723,361.046,357.076,0.0
55291.0,STARLINK-5327,PAYLOAD,2023-04-25 10:54:33,15.69877893,0.0003087,69.9974,159.228,270.3668,89.7174,-3.4385e-05,-4.337e-05,0.0,0 STARLINK-5327,1 55291U 23010Y   23115.45455521 -.00004337  00000-0 -34385-4 0  9997,2 55291  69.9974 159.2280 0003087 270.3668  89.7174 15.69877893 15561,6737.383,91.727,361.328,357.169,0.0
55291.0,STARLINK-5327,PAYLOAD,2023-04-25 15:29:46,15.699095,0.0003317,69.9972,158.6912,268.6883,91.3933,2.4103e-07,-1.84e-06,0.0,0 STARLINK-5327,1 55291U 23010Y   23115.64568208 -.00000184  00000-0  24103-6 0  9999,2 55291  69.9972 158.6912 0003317 268.6883  91.3933 15.69909500 15595,6737.293,91.725,361.393,356.923,0.0
55291.0,STARLINK-5327,PAYLOAD,2023-04-26 11:22:30,15.69955148,0.0002707,69.9961,156.361,259.6212,100.4678,3.3292e-05,3.797e-05,0.0,0 STARLINK-5327,1 55291U 23010Y   23116.47396098  .00003797  00000-0  33292-4 0  9996,2 55291  69.9961 156.3610 0002707 259.6212 100.4678 15.69955148 16038,6737.162,91.722,360.851,357.204,0.0
55291.0,STARLINK-5327,PAYLOAD,2023-04-26 14:26:00,15.69952037,0.0003024,69.9979,156.0068,267.3587,92.7263,5.0459e-05,5.865e-05,0.0,0 STARLINK-5327,1 55291U 23010Y   23116.60139000  .00005865  00000-0  50459-4 0  9991,2 55291  69.9979 156.0068 0003024 267.3587  92.7263 15.69952037 16054,6737.171,91.723,361.074,356.999,0.0
55291.0,STARLINK-5327,PAYLOAD,2023-04-27 04:11:48,15.69907735,0.0002516,70.0011,154.3966,252.9742,107.1178,5.2115e-05,6.054e-05,0.0,0 STARLINK-5327,1 55291U 23010Y   23117.17487167  .00006054  00000-0  52115-4 0  9996,2 55291  70.0011 154.3966 0002516 252.9742 107.1178 15.69907735 15836,6737.298,91.725,360.858,357.468,0.0
55291.0,STARLINK-5327,PAYLOAD,2023-04-27 11:50:34,15.69907459,0.0002903,69.9981,153.4989,250.8028,109.2854,4.4679e-05,5.159e-05,0.0,0 STARLINK-5327,1 55291U 23010Y   23117.49345709  .00005159  00000-0  44679-4 0  9997,2 55291  69.9981 153.4989 0002903 250.8028 109.2854 15.69907459 16195,6737.299,91.725,361.12,357.208,0.0
55291.0,STARLINK-5327,PAYLOAD,2023-04-28 04:39:50,15.69940778,0.0002944,69.9969,151.5248,247.2993,112.7892,-2.5842e-05,-3.321e-05,0.0,0 STARLINK-5327,1 55291U 23010Y   23118.19433444 -.00003321  00000-0 -25842-4 0  9991,2 55291  69.9969 151.5248 0002944 247.2993 112.7892 15.69940778 15993,6737.203,91.723,361.052,357.085,0.0
55291.0,STARLINK-5327,PAYLOAD,2023-04-28 12:18:36,15.69935769,0.0003009,69.9969,150.6293,248.3978,111.6898,-2.8439e-05,-3.632e-05,0.0,0 STARLINK-5327,1 55291U 23010Y   23118.51291846 -.00003632  00000-0 -28439-4 0  9995,2 55291  69.9969 150.6293 0003009 248.3978 111.6898 15.69935769 16350,6737.218,91.723,361.11,357.056,0.0
55291.0,STARLINK-5327,PAYLOAD,2023-04-29 05:07:52,15.69925648,0.0003248,69.9972,148.6593,263.1788,96.9038,1.5108e-06,-3.1e-07,0.0,0 STARLINK-5327,1 55291U 23010Y   23119.21379791 -.00000031  00000-0  15108-5 0  9998,2 55291  69.9972 148.6593 0003248 263.1788  96.9038 15.69925648 16157,6737.247,91.724,361.3,356.923,0.0
55291.0,STARLINK-5327,PAYLOAD,2023-04-29 11:14:52,15.69927932,0.000318,69.9968,147.9424,260.6426,99.441,7.8057e-06,7.26e-06,0.0,0 STARLINK-5327,1 55291U 23010Y   23119.46866131  .00000726  00000-0  78057-5 0  9996,2 55291  69.9968 147.9424 0003180 260.6426  99.4410 15.69927932 16502,6737.24,91.724,361.248,356.963,0.0
55291.0,STARLINK-5327,PAYLOAD,2023-04-30 11:42:54,15.69918193,0.000322,69.996,145.0769,268.3238,91.7588,6.4566e-06,5.63e-06,0.0,0 STARLINK-5327,1 55291U 23010Y   23120.48813540  .00000563  00000-0  64566-5 0  9995,2 55291  69.9960 145.0769 0003220 268.3238  91.7588 15.69918193 16359,6737.268,91.725,361.302,356.964,0.0
55291.0,STARLINK-5327,PAYLOAD,2023-05-01 10:39:11,15.6992477,0.0002849,69.9975,142.3909,253.8328,106.2554,2.4263e-06,7.9e-07,0.0,0 STARLINK-5327,1 55291U 23010Y   23121.44388406  .00000079  00000-0  24263-5 0  9992,2 55291  69.9975 142.3909 0002849 253.8328 106.2554 15.69924770 16506,6737.249,91.724,361.034,357.195,0.0
55291.0,STARLINK-5327,PAYLOAD,2023-05-02 12:38:59,15.69913301,0.0002541,69.9984,139.3431,276.9505,83.1402,-1.0703e-05,-1.498e-05,0.0,0 STARLINK-5327,1 55291U 23010Y   23122.52707871 -.00001498  00000-0 -10703-4 0  9994,2 55291  69.9984 139.3431 0002541 276.9505  83.1402 15.69913301 16675,6737.282,91.725,360.859,357.435,0.0
55291.0,STARLINK-5327,PAYLOAD,2023-05-03 10:03:31,15.69891999,0.0003168,69.9977,136.8366,266.9316,93.1517,6.2361e-05,7.282e-05,0.0,0 STARLINK-5327,1 55291U 23010Y   23123.41911077  .00007282  00000-0  62361-4 0  9990,2 55291  69.9977 136.8366 0003168 266.9316  93.1517 15.69891999 17128,6737.343,91.726,361.342,357.074,0.0
55291.0,STARLINK-5327,PAYLOAD,2023-05-04 02:52:46,15.69925623,0.0002846,69.9987,134.8652,258.3847,101.7029,1.0024e-05,9.93e-06,0.0,0 STARLINK-5327,1 55291U 23010Y   23124.11998450  .00000993  00000-0  10024-4 0  9999,2 55291  69.9987 134.8652 0002846 258.3847 101.7029 15.69925623 16924,6737.247,91.724,361.029,357.194,0.0
55291.0,STARLINK-5327,PAYLOAD,2023-05-04 12:03:18,15.69918268,0.0002758,69.9988,133.7904,265.8396,94.2484,-8.318e-07,-3.12e-06,0.0,0 STARLINK-5327,1 55291U 23010Y   23124.50229221 -.00000312  00000-0 -83180-6 0  9997,2 55291  69.9988 133.7904 0002758 265.8396  94.2484 15.69918268 16981,6737.268,91.725,360.991,357.275,0.0
55291.0,STARLINK-5327,PAYLOAD,2023-05-05 12:31:19,15.69924215,0.000316,69.9987,130.9256,262.223,97.8607,7.0596e-06,6.36e-06,0.0,0 STARLINK-5327,1 55291U 23010Y   23125.52175487  .00000636  00000-0  70596-5 0  9997,2 55291  69.9987 130.9256 0003160 262.2230  97.8607 15.69924215 17149,6737.251,91.724,361.245,356.987,0.0
55291.0,STARLINK-5327,PAYLOAD,2023-05-06 06:52:20,15.69934422,0.0003028,69.9987,128.7754,260.7425,99.3428,1.4438e-05,1.524e-05,0.0,0 STARLINK-5327,1 55291U 23010Y   23126.28634806  .00001524  00000-0  14438-4 0  9995,2 55291  69.9987 128.7754 0003028 260.7425  99.3428 15.69934422 17261,6737.222,91.724,361.127,357.047,0.0
55291.0,STARLINK-5327,PAYLOAD,2023-05-06 09:55:50,15.69933459,0.0003221,69.9986,128.4183,258.8494,101.2339,1.1597e-05,1.182e-05,0.0,0 STARLINK-5327,1 55291U 23010Y   23126.41378220  .00001182  00000-0  11597-4 0  9998,2 55291  69.9986 128.4183 0003221 258.8494 101.2339 15.69933459 17591,6737.224,91.724,361.259,356.919,0.0
55291.0,STARLINK-5327,PAYLOAD,2023-05-07 02:45:19,15.69804545,0.0007827,69.9972,126.4504,302.8188,57.2253,-0.00024809,-0.00029838,0.0,0 STARLINK-5327,1 55291U 23010Y   23127.11480785 -.00029838  00000-0 -24809-3 0  9995,2 55291  69.9972 126.4504 0007827 302.8188  57.2253 15.69804545 17393,6737.593,91.731,364.732,354.185,0.0
55291.0,STARLINK-5327,PAYLOAD,2023-05-07 14:00:01,15.68701977,0.0003433,69.9996,125.1306,269.6801,216.9417,-0.0093558,-0.00970257,0.0,0 STARLINK-5327,1 55291U 23010Y   23127.58334491 -.00970257  00000-0 -93558-2 0  9994,2 55291  69.9996 125.1306 0003433 269.6801 216.9417 15.68701977 17475,6740.75,91.796,364.929,360.301,0.0
55291.0,STARLINK-5327,PAYLOAD,2023-05-07 22:00:00,15.68020805,0.0003602,70.0002,124.1952,260.1392,307.9234,-0.0088812,-0.00888649,0.0,0 STARLINK-5327,1 55291U 23010Y   23127.91667824 -.00888649  00000-0 -88812-2 0  9990,2 55291  70.0002 124.1952 0003602 260.1392 307.9234 15.68020805 17529,6742.702,91.836,366.996,362.138,0.0
55291.0,STARLINK-5327,PAYLOAD,2023-05-08 14:00:01,15.66739052,0.0003769,70.0,122.328,271.0639,97.5277,-0.009973,-0.00955992,0.0,0 STARLINK-5327,1 55291U 23010Y   23128.58334491 -.00955992  00000-0 -99730-2 0  9992,2 55291  70.0000 122.3280 0003769 271.0639  97.5277 15.66739052 17629,6746.379,91.911,370.787,365.701,0.0
55291.0,STARLINK-5327,PAYLOAD,2023-05-08 22:00:00,15.66069755,0.0003671,70.0002,121.3964,267.3771,180.3071,-0.0097411,-0.00912855,0.0,0 STARLINK-5327,1 55291U 23010Y   23128.91667824 -.00912855  00000-0 -97411-2 0  9993,2 55291  70.0002 121.3964 0003671 267.3771 180.3071 15.66069755  1303,6748.301,91.95,372.643,367.689,0.0
55291.0,STARLINK-5327,PAYLOAD,2023-05-09 14:00:01,15.64792556,0.0003479,70.0004,119.5342,271.4986,332.0174,-0.011049,-0.00977043,0.0,0 STARLINK-5327,1 55291U 23010Y   23129.58334491 -.00977043  00000-0 -11049-1 0  9990,2 55291  70.0004 119.5342 0003479 271.4986 332.0174 15.64792556  1304,6751.972,92.025,376.186,371.488,0.0
55291.0,STARLINK-5327,PAYLOAD,2023-05-10 14:00:01,15.62828391,0.0003401,70.0005,116.7487,272.7495,198.6555,-0.011786,-0.00965391,0.0,0 STARLINK-5327,1 55291U 23010Y   23130.58334491 -.00965391  00000-0 -11786-1 0  9993,2 55291  70.0005 116.7487 0003401 272.7495 198.6555 15.62828391  1302,6757.629,92.141,381.792,377.195,0.0
